{
    "links": {
        "self": "http://www.neowsapp.com/rest/v1/neo/3802434?api_key=iIulBulltgU6a56xZRHN4H3l9WmuAYTsLGpBGhQ2"
    },
    "id": "3802434",
    "neo_reference_id": "3802434",
    "name": "(2018 GW1)",
    "designation": "2018 GW1",
    "nasa_jpl_url": "http://ssd.jpl.nasa.gov/sbdb.cgi?sstr=3802434",
    "absolute_magnitude_h": 26.4,
    "estimated_diameter": {
        "kilometers": {
            "estimated_diameter_min": 0.0139493823,
            "estimated_diameter_max": 0.0311917671
        },
        "meters": {
            "estimated_diameter_min": 13.9493822934,
            "estimated_diameter_max": 31.1917670523
        },
        "miles": {
            "estimated_diameter_min": 0.0086677416,
            "estimated_diameter_max": 0.0193816595
        },
        "feet": {
            "estimated_diameter_min": 45.7656914036,
            "estimated_diameter_max": 102.3351970157
        }
    },
    "is_potentially_hazardous_asteroid": false,
    "close_approach_data": [
        {
            "close_approach_date": "2018-04-09",
            "close_approach_date_full": "2018-Apr-09 21:16",
            "epoch_date_close_approach": 1523308560000,
            "relative_velocity": {
                "kilometers_per_second": "13.5972898255",
                "kilometers_per_hour": "48950.2433716819",
                "miles_per_hour": "30415.7776105876"
            },
            "miss_distance": {
                "astronomical": "0.00983074",
                "lunar": "3.82415786",
                "kilometers": "1470657.7645238",
                "miles": "913824.36027644"
            },
            "orbiting_body": "Earth"
        }
    ],
    "orbital_data": {
        "orbit_id": "2",
        "orbit_determination_date": "2018-04-15 06:25:45",
        "first_observation_date": "2018-04-11",
        "last_observation_date": "2018-04-15",
        "data_arc_in_days": 4,
        "observations_used": 47,
        "orbit_uncertainty": "7",
        "minimum_orbit_intersection": ".00942131",
        "jupiter_tisserand_invariant": "4.062",
        "epoch_osculation": "2459000.5",
        "eccentricity": ".4752682793707604",
        "semi_major_axis": "1.677164881300891",
        "inclination": "16.2340214459595",
        "ascending_node_longitude": "200.8477350076364",
        "orbital_period": "793.3449596054966",
        "perihelion_distance": ".8800616139439513",
        "perihelion_argument": "305.8448871140209",
        "aphelion_distance": "2.474268148657832",
        "perihelion_time": "2458971.540296129907",
        "mean_anomaly": "13.14118564315022",
        "mean_motion": ".4537748625503536",
        "equinox": "J2000",
        "orbit_class": {
            "orbit_class_type": "APO",
            "orbit_class_description": "Near-Earth asteroid orbits which cross the Earth’s orbit similar to that of 1862 Apollo",
            "orbit_class_range": "a (semi-major axis) > 1.0 AU; q (perihelion) < 1.017 AU"
        }
    },
    "is_sentry_object": false
}